Node_Label,ID_,Location,Parent_Foreign_Id,Parent_Foreign_Source,IP_Management,MgmtType_,svc_Forced,cat_,Asset_category,Asset_region,Asset_serialNumber,Asset_assetNumber,Asset_latitude,Asset_longitude,Asset_thresholdCategory,Asset_notifyCategory,Asset_pollerCategory,Asset_displayCategory,Asset_managedObjectType,Asset_managedObjectInstance,Asset_circuitId,Asset_description,MetaData_requisition:serviceId,MetaData_requisition:serviceName,MetaData_requisition:customerId,MetaData_requisition:customerName,Asset_comment,Asset_building,Asset_floor,Asset_room,Asset_rack,Asset_rackunitheight,Asset_slot,Asset_port,Asset_region,Asset_division,Asset_department,Asset_address1,Asset_address2,Asset_city,Asset_state,Asset_zip,Asset_country,Asset_modelnumber,Asset_manufacturer,Asset_vendor,Asset_vendorphone,Asset_vendorfax,Asset_userlastmodified,Asset_lastmodifieddate,Asset_dateinstalled,Asset_lease,Asset_leaseexpires,Asset_supportphone,Asset_maintcontract,Asset_maintcontractexpires,Asset_username,Asset_password,Asset_enable,Asset_autoenable,Asset_connection,Asset_operatingsystem,Asset_cpu,Asset_ram,Asset_storagectrl,Asset_hdd1,Asset_hdd2,Asset_hdd3,Asset_hdd4,Asset_hdd5,Asset_hdd6,Asset_numpowersupplies,Asset_inputpower,Asset_additionalhardware,Asset_admin,Asset_snmpcommunity
SOTNOO1_SOTN001_RACK001_SOTN001_OLT_0100,0f484445-44fd-426a-9a37-d73c609cf846,Management_Network,,,192.168.100.10,P,,,,,,,-1.393999,50.923874,,,,,InventoryObject/ViewableObject/ConfigurationItem/GenericCommunicationsElement/GenericPhysicalElement/OpticalLineTerminal,0f484445-44fd-426a-9a37-d73c609cf846,,,,NOT_ASSIGNED,,NOT_ASSIGNED,,,,,,,,,,,,,,,,,,,,,,,,,,,,,,,,,,,,,,,,,,,,,,,,,,
DRC-OUTC-01__1x8_Antiguo,b67cd66e-350f-4bf4-8a37-372e56bfb494,Default,,,254.0.0.1,N,,,,,,,-4.3435993,15.26265,,,,,InventoryObject/ViewableObject/ConfigurationItem/GenericBox/FiberSplitter,b67cd66e-350f-4bf4-8a37-372e56bfb494,,,,,,,,,,,,,,,,,,,,,,,,,,,,,,,,,,,,,,,,,,,,,,,,,,,,,,,,
DRC-MHN-05__DRC-FS-05,0c472e45-3f42-4ad2-af99-fc72f279023d,Default,,,254.0.0.1,N,,,,,,,-4.3442698,15.264234,,,,,InventoryObject/ViewableObject/ConfigurationItem/GenericBox/FiberSplitter,0c472e45-3f42-4ad2-af99-fc72f279023d,,,,,,,,,,,,,,,,,,,,,,,,,,,,,,,,,,,,,,,,,,,,,,,,,,,,,,,,
MIA-MNH-03__MIA-FSR-01,a425d14c-6c66-4b69-a170-d0ddb3399034,Default,,,254.0.0.1,N,,,,,,,25.765083,-80.1905,,,,,InventoryObject/ViewableObject/ConfigurationItem/GenericBox/FiberSplitter,a425d14c-6c66-4b69-a170-d0ddb3399034,,,,,,,,,,,,,,,,,,,,,,,,,,,,,,,,,,,,,,,,,,,,,,,,,,,,,,,,
SO18BPK1_POLE_0001__SO18BPK1_POLE_0001_SPL16_0001,7f76cc61-ab2e-4f99-b019-4fe05a18811b,Default,,,254.0.0.1,N,,,,,,,50.926567,-1.3718522,,,,,InventoryObject/ViewableObject/ConfigurationItem/GenericBox/FiberSplitter,7f76cc61-ab2e-4f99-b019-4fe05a18811b,,,,,,,,,,,,,,,,,,,,,,,,,,,,,,,,,,,,,,,,,,,,,,,,,,,,,,,,
SO18BPK1_CAB_0001__SO18BPK1_CAB_0001_SPL8_0001,713e81ac-0f42-4fc8-a49d-7da9e9c5dcd7,Default,,,254.0.0.1,N,,,,,,,50.92653,-1.3718922,,,,,InventoryObject/ViewableObject/ConfigurationItem/GenericBox/FiberSplitter,713e81ac-0f42-4fc8-a49d-7da9e9c5dcd7,,,,,,,,,,,,,,,,,,,,,,,,,,,,,,,,,,,,,,,,,,,,,,,,,,,,,,,,
fac1_rack01_splitter01,7b931a10-47f0-46c2-92f6-b683aadd1306,Default,,,254.0.0.1,N,,,,,,,,,,,,,InventoryObject/ViewableObject/ConfigurationItem/GenericBox/FiberSplitter,7b931a10-47f0-46c2-92f6-b683aadd1306,,,,,,,,,,,,,,,,,,,,,,,,,,,,,,,,,,,,,,,,,,,,,,,,,,,,,,,,
DRC-HOU-001__DRC-ONT-01,4700485e-44b8-4887-8a56-b533bc1869d7,Default,,,254.0.0.1,N,,,,,NOT_ASSIGNED,,-4.34441,15.262486,,,,,InventoryObject/ViewableObject/ConfigurationItem/GenericCommunicationsElement/GenericPhysicalElement/OpticalNetworkTerminal,4700485e-44b8-4887-8a56-b533bc1869d7,,,,NOT_ASSIGNED,,NOT_ASSIGNED,,,,,,,,,,,,,,,,,,,,,,,,,,,,,,,,,,,,,,,,,,,,,,,,,,
DRC-HOU-02__DRC_ONT_02,5289cec6-b3e0-4888-b4d1-dacac84c898e,Default,,,254.0.0.1,N,,,,,NOT_ASSIGNED,,-4.344069,15.261728,,,,,InventoryObject/ViewableObject/ConfigurationItem/GenericCommunicationsElement/GenericPhysicalElement/OpticalNetworkTerminal,5289cec6-b3e0-4888-b4d1-dacac84c898e,,,,NOT_ASSIGNED,,NOT_ASSIGNED,,,,,,,,,,,,,,,,,,,,,,,,,,,,,,,,,,,,,,,,,,,,,,,,,,
DRC-HOU-03__DRC-ONT-03,85c07289-416f-44dd-bae5-0ad6781c7015,Default,,,254.0.0.1,N,,,,,NOT_ASSIGNED,,-4.34461,15.2650585,,,,,InventoryObject/ViewableObject/ConfigurationItem/GenericCommunicationsElement/GenericPhysicalElement/OpticalNetworkTerminal,85c07289-416f-44dd-bae5-0ad6781c7015,,,,NOT_ASSIGNED,,NOT_ASSIGNED,,,,,,,,,,,,,,,,,,,,,,,,,,,,,,,,,,,,,,,,,,,,,,,,,,
[PHYSICAL_PATH]_MIA-HOU-01__MIA-ONT-01,7dde9ab1-7fd9-4b8f-bc8f-d2ba4bfc17f2,Default,,,254.0.0.1,N,,,,,NOT_ASSIGNED,,25.764677,-80.18849,,,,,InventoryObject/ViewableObject/ConfigurationItem/GenericCommunicationsElement/GenericPhysicalElement/OpticalNetworkTerminal,7dde9ab1-7fd9-4b8f-bc8f-d2ba4bfc17f2,,,,NOT_ASSIGNED,,NOT_ASSIGNED,,,,,,,,,,,,,,,,,,,,,,,,,,,,,,,,,,,,,,,,,,,,,,,,,,
MIA-HOU-02__MIA-ONT-02,87893f3a-77cd-460f-a15a-4f66b7d586f8,Default,,,254.0.0.1,N,,,,,NOT_ASSIGNED,,25.764254,-80.190605,,,,,InventoryObject/ViewableObject/ConfigurationItem/GenericCommunicationsElement/GenericPhysicalElement/OpticalNetworkTerminal,87893f3a-77cd-460f-a15a-4f66b7d586f8,,,,NOT_ASSIGNED,,NOT_ASSIGNED,,,,,,,,,,,,,,,,,,,,,,,,,,,,,,,,,,,,,,,,,,,,,,,,,,
UPRN_100060677240__ONT_100060677240,c3b4a4f9-3dbe-4353-b4c0-fdceeb878621,Default,,,254.0.0.1,N,,,,,ALCLF174C14C478,,50.926582,-1.3719264,,,,,InventoryObject/ViewableObject/ConfigurationItem/GenericCommunicationsElement/GenericPhysicalElement/OpticalNetworkTerminal,c3b4a4f9-3dbe-4353-b4c0-fdceeb878621,,,,NOT_ASSIGNED,,NOT_ASSIGNED,,,,,,,,,,,,,,,,,,,,,,,,,,,,,,,,,,,,,,,,,,,,,,,,,,
UPRN_100060677242__ONT_100060677242,f3da6c5f-c67a-45aa-85c9-92aad69fa437,Default,,,254.0.0.1,N,,,,,ALCLF174C14C47A,,50.92661,-1.3718122,,,,,InventoryObject/ViewableObject/ConfigurationItem/GenericCommunicationsElement/GenericPhysicalElement/OpticalNetworkTerminal,f3da6c5f-c67a-45aa-85c9-92aad69fa437,,,,NOT_ASSIGNED,,NOT_ASSIGNED,,,,,,,,,,,,,,,,,,,,,,,,,,,,,,,,,,,,,,,,,,,,,,,,,,
UPRN_10001317283__ONT_10001317283,0fd591c9-6c51-4549-a586-c16114ed9dfc,Default,,,254.0.0.1,N,,,,,ALCLF2541FFDA3,,50.92661,-1.3718122,,,,,InventoryObject/ViewableObject/ConfigurationItem/GenericCommunicationsElement/GenericPhysicalElement/OpticalNetworkTerminal,0fd591c9-6c51-4549-a586-c16114ed9dfc,,,,NOT_ASSIGNED,,NOT_ASSIGNED,,,,,,,,,,,,,,,,,,,,,,,,,,,,,,,,,,,,,,,,,,,,,,,,,,
UPRN_100060677241__ONT_100060677241,28af8046-1cc5-4133-a4f0-232612f85291,Default,,,254.0.0.1,N,,,,,ALCLF174C14C479,,50.92663,-1.3719116,,,,,InventoryObject/ViewableObject/ConfigurationItem/GenericCommunicationsElement/GenericPhysicalElement/OpticalNetworkTerminal,28af8046-1cc5-4133-a4f0-232612f85291,,,,NOT_ASSIGNED,,NOT_ASSIGNED,,,,,,,,,,,,,,,,,,,,,,,,,,,,,,,,,,,,,,,,,,,,,,,,,,
UPRN_100060677243__ONT_100060677243,a21576d3-060d-42d9-a463-aeb47f3255fa,Default,,,254.0.0.1,N,,,,,ALCLF174C14C47B,,50.92657,-1.3716562,,,,,InventoryObject/ViewableObject/ConfigurationItem/GenericCommunicationsElement/GenericPhysicalElement/OpticalNetworkTerminal,a21576d3-060d-42d9-a463-aeb47f3255fa,,,,NOT_ASSIGNED,,NOT_ASSIGNED,,,,,,,,,,,,,,,,,,,,,,,,,,,,,,,,,,,,,,,,,,,,,,,,,,
fac1_rack01_testOnt1,b2a8aae3-7b5e-4e19-adc9-d666f872d4d7,Default,,,254.0.0.1,N,,,,,NOT_ASSIGNED,,,,,,,,InventoryObject/ViewableObject/ConfigurationItem/GenericCommunicationsElement/GenericPhysicalElement/OpticalNetworkTerminal,b2a8aae3-7b5e-4e19-adc9-d666f872d4d7,,,,NOT_ASSIGNED,,NOT_ASSIGNED,,,,,,,,,,,,,,,,,,,,,,,,,,,,,,,,,,,,,,,,,,,,,,,,,,
fac1_rack01_testOnt2,86e2399a-811c-4e5c-8d36-a9a69be37877,Default,,,254.0.0.1,N,,,,,NOT_ASSIGNED,,,,,,,,InventoryObject/ViewableObject/ConfigurationItem/GenericCommunicationsElement/GenericPhysicalElement/OpticalNetworkTerminal,86e2399a-811c-4e5c-8d36-a9a69be37877,,,,NOT_ASSIGNED,,NOT_ASSIGNED,,,,,,,,,,,,,,,,,,,,,,,,,,,,,,,,,,,,,,,,,,,,,,,,,,
1burnett__1BurnettONT,e5c69356-85ca-42a7-b2ad-cd8a26bb7943,Default,,,254.0.0.1,N,,,,,NOT_ASSIGNED,,50.92445,-1.3720435,,,,,InventoryObject/ViewableObject/ConfigurationItem/GenericCommunicationsElement/GenericPhysicalElement/OpticalNetworkTerminal,e5c69356-85ca-42a7-b2ad-cd8a26bb7943,,,,NOT_ASSIGNED,,NOT_ASSIGNED,,,,,,,,,,,,,,,,,,,,,,,,,,,,,,,,,,,,,,,,,,,,,,,,,,
6burnett__6BurnettONT,fc9aab02-03e0-4b58-bb94-d21256198237,Default,,,254.0.0.1,N,,,,,NOT_ASSIGNED,,50.92463,-1.3719066,,,,,InventoryObject/ViewableObject/ConfigurationItem/GenericCommunicationsElement/GenericPhysicalElement/OpticalNetworkTerminal,fc9aab02-03e0-4b58-bb94-d21256198237,,,,NOT_ASSIGNED,,NOT_ASSIGNED,,,,,,,,,,,,,,,,,,,,,,,,,,,,,,,,,,,,,,,,,,,,,,,,,,
Building_B_Rack_B-B_ASR1002-BB-01,6c5bb217-af14-487e-8382-e3b2c0911d50,IPv4Root,,,120.10.40.7,P,,,,,NOT_ASSIGNED,,,,,,,,InventoryObject/ViewableObject/ConfigurationItem/GenericCommunicationsElement/GenericNetworkElement/MPLSRouter,6c5bb217-af14-487e-8382-e3b2c0911d50,,,,NOT_ASSIGNED,,NOT_ASSIGNED,,,,,,,,,,,,,,,,,,,,,,,,,,,,,,,,,,,,,,,,,,,,,,,,,,
Camp_Hill_Rack1-SalisburyRadio_BT-OR_Adva_Optical_Terminal,d0419590-3bd2-4287-89c5-3a715332ad02,Default,,,254.0.0.1,N,,,,,FSP 150-GE102 Pro,,51.102833,-1.8419034,,,,,InventoryObject/ViewableObject/ConfigurationItem/GenericCommunicationsElement/GenericPhysicalElement/OpticalNetworkTerminal,d0419590-3bd2-4287-89c5-3a715332ad02,,,,NOT_ASSIGNED,,NOT_ASSIGNED,,,,,,,,,,,,,,,,,,,,,,,,,,,,,,,,,,,,,,,,,,,,,,,,,,
Rowridge_Rack1-SouthamptonRadio_BT-OR_Adva_Optical_Terminal,a0602a63-eb46-4ef1-88ad-b7f6ba1e601c,Default,,,254.0.0.1,N,,,,,FSP 150-GE102 Pro,,50.676388,-1.368611,,,,ILR_Contactor_2,InventoryObject/ViewableObject/ConfigurationItem/GenericCommunicationsElement/GenericPhysicalElement/OpticalNetworkTerminal,a0602a63-eb46-4ef1-88ad-b7f6ba1e601c,,,85199373-939c-4da5-b093-964f055e5e7a,Southampton_Radio,dba0d805-40a9-4bb1-86d5-63b3560d6e82,ILR_Contactor_2,,,,,,,,,,,,,,,,,,,,,,,,,,,,,,,,,,,,,,,,,,,,,,,,,,
Fort_Widley_Rack1-PortsmouthRadio_BT-OR_Adva_Optical_Terminal,8b3dbb97-6d2b-4207-bd55-a719a3239008,Default,,,254.0.0.1,N,,,,,FSP 150-GE102 Pro,,50.854836,-1.067246,,,,ILR_Contractor_1,InventoryObject/ViewableObject/ConfigurationItem/GenericCommunicationsElement/GenericPhysicalElement/OpticalNetworkTerminal,8b3dbb97-6d2b-4207-bd55-a719a3239008,,,a6b7943d-fbe7-417b-a8ab-d508ab82dc06,Portsmouth_Radio,b7d8c0be-3a99-4bd9-8287-6e4d98d0530b,ILR_Contractor_1,,,,,,,,,,,,,,,,,,,,,,,,,,,,,,,,,,,,,,,,,,,,,,,,,,
Crabwood_Farm_Rack1-WinchesterRadio_BT-OR_Adva_Optical_Terminal,8abc0081-2e13-4a3a-aed3-9cf2830c1681,Default,,,254.0.0.1,N,,,,,FSP 150-GE102 Pro,,51.0632,-1.3603,,,,ILR_Contractor_1,InventoryObject/ViewableObject/ConfigurationItem/GenericCommunicationsElement/GenericPhysicalElement/OpticalNetworkTerminal,8abc0081-2e13-4a3a-aed3-9cf2830c1681,,,b6df696f-b289-4087-932e-59aca0c23b08,Winchester_Radio,b7d8c0be-3a99-4bd9-8287-6e4d98d0530b,ILR_Contractor_1,,,,,,,,,,,,,,,,,,,,,,,,,,,,,,,,,,,,,,,,,,,,,,,,,,
Camp_Hill_Rack1-SalisburyRadio_DB7012,d0d1af67-6548-4aac-b9d6-cf8d2663a02b,campHill1,,,10.8.105.101,P,,,db7012-1,,NOT_ASSIGNED,,51.102833,-1.8419034,,,,,InventoryObject/ViewableObject/ConfigurationItem/GenericCommunicationsElement/GenericBroadcastElement/GenericBroadcastReceiver/DABReceiver,d0d1af67-6548-4aac-b9d6-cf8d2663a02b,,,,NOT_ASSIGNED,,NOT_ASSIGNED,,,,,,,,,,,,,,,,,,,,,,,,,,,,,,,,,,,,,,,,,,,,,,,,,,
Rowridge_Rack1-SouthamptonRadio_DB7012,c5f4e71c-9505-4fd4-90fe-4768d5c019a9,rowridge1,,,10.7.105.101,P,,,db7012-1,,NOT_ASSIGNED,,50.676388,-1.368611,,,,ILR_Contactor_2,InventoryObject/ViewableObject/ConfigurationItem/GenericCommunicationsElement/GenericBroadcastElement/GenericBroadcastReceiver/DABReceiver,c5f4e71c-9505-4fd4-90fe-4768d5c019a9,,,85199373-939c-4da5-b093-964f055e5e7a,Southampton_Radio,dba0d805-40a9-4bb1-86d5-63b3560d6e82,ILR_Contactor_2,,,,,,,,,,,,,,,,,,,,,,,,,,,,,,,,,,,,,,,,,,,,,,,,,,
Crabwood_Farm_Rack1-WinchesterRadio_DB7012,35604581-ab47-4a31-a98d-246812f26f97,crabwoodFarm1,,,10.5.105.101,P,,,db7012-1,,NOT_ASSIGNED,,51.0632,-1.3603,,,,ILR_Contractor_1,InventoryObject/ViewableObject/ConfigurationItem/GenericCommunicationsElement/GenericBroadcastElement/GenericBroadcastReceiver/DABReceiver,35604581-ab47-4a31-a98d-246812f26f97,,,b6df696f-b289-4087-932e-59aca0c23b08,Winchester_Radio,b7d8c0be-3a99-4bd9-8287-6e4d98d0530b,ILR_Contractor_1,,,,,,,,,,,,,,,,,,,,,,,,,,,,,,,,,,,,,,,,,,,,,,,,,,
Fort_Widley_Rack1-PortsmouthRadio_DB7012,785212af-716b-45d4-8d68-515465ed4977,ftwidley1,,,10.6.105.101,P,,,db7012-1,,NOT_ASSIGNED,,50.854836,-1.067246,,,,ILR_Contractor_1,InventoryObject/ViewableObject/ConfigurationItem/GenericCommunicationsElement/GenericBroadcastElement/GenericBroadcastReceiver/DABReceiver,785212af-716b-45d4-8d68-515465ed4977,,,a6b7943d-fbe7-417b-a8ab-d508ab82dc06,Portsmouth_Radio,b7d8c0be-3a99-4bd9-8287-6e4d98d0530b,ILR_Contractor_1,,,,,,,,,,,,,,,,,,,,,,,,,,,,,,,,,,,,,,,,,,,,,,,,,,
Camp_Hill_Rack1-SalisburyRadio_DB8008_Silence_Switcher,d89bdd5f-0de4-4b71-ab38-902133d0166c,campHill1,,,10.8.105.100,P,,,,,NOT_ASSIGNED,,51.102833,-1.8419034,,,,,InventoryObject/ViewableObject/ConfigurationItem/GenericCommunicationsElement/GenericBroadcastElement/GenericProgramInputEquipment/AudioSwitch,d89bdd5f-0de4-4b71-ab38-902133d0166c,,,,NOT_ASSIGNED,,NOT_ASSIGNED,,,,,,,,,,,,,,,,,,,,,,,,,,,,,,,,,,,,,,,,,,,,,,,,,,
Rowridge_Rack1-SouthamptonRadio_DB8008_Silence_Switcher,4d13e693-0941-4233-bd52-e06f2130db83,rowridge1,,,10.7.105.100,P,,,,,NOT_ASSIGNED,,50.676388,-1.368611,,,,ILR_Contactor_2,InventoryObject/ViewableObject/ConfigurationItem/GenericCommunicationsElement/GenericBroadcastElement/GenericProgramInputEquipment/AudioSwitch,4d13e693-0941-4233-bd52-e06f2130db83,,,85199373-939c-4da5-b093-964f055e5e7a,Southampton_Radio,dba0d805-40a9-4bb1-86d5-63b3560d6e82,ILR_Contactor_2,,,,,,,,,,,,,,,,,,,,,,,,,,,,,,,,,,,,,,,,,,,,,,,,,,
Crabwood_Farm_Rack1-WinchesterRadio_DB8008_Silence_Switcher,8dd8011c-bc35-4475-a108-6d4035f41937,crabwoodFarm1,,,10.5.105.100,P,,,,,NOT_ASSIGNED,,51.0632,-1.3603,,,,ILR_Contractor_1,InventoryObject/ViewableObject/ConfigurationItem/GenericCommunicationsElement/GenericBroadcastElement/GenericProgramInputEquipment/AudioSwitch,8dd8011c-bc35-4475-a108-6d4035f41937,,,b6df696f-b289-4087-932e-59aca0c23b08,Winchester_Radio,b7d8c0be-3a99-4bd9-8287-6e4d98d0530b,ILR_Contractor_1,,,,,,,,,,,,,,,,,,,,,,,,,,,,,,,,,,,,,,,,,,,,,,,,,,
Fort_Widley_Rack1-PortsmouthRadio_DB8008_Silence_Switcher,755f7aa8-5a3d-41ee-8bfd-c6b5710350fe,ftwidley1,,,10.6.105.100,P,,,,,NOT_ASSIGNED,,50.854836,-1.067246,,,,ILR_Contractor_1,InventoryObject/ViewableObject/ConfigurationItem/GenericCommunicationsElement/GenericBroadcastElement/GenericProgramInputEquipment/AudioSwitch,755f7aa8-5a3d-41ee-8bfd-c6b5710350fe,,,a6b7943d-fbe7-417b-a8ab-d508ab82dc06,Portsmouth_Radio,b7d8c0be-3a99-4bd9-8287-6e4d98d0530b,ILR_Contractor_1,,,,,,,,,,,,,,,,,,,,,,,,,,,,,,,,,,,,,,,,,,,,,,,,,,
Camp_Hill_Rack1-SalisburyRadio_DB9000-RX,dce07a03-ee7d-454f-ab7f-3dab9e153cef,campHill1,,,10.8.105.99,P,,,,,NOT_ASSIGNED,,51.102833,-1.8419034,,,,,InventoryObject/ViewableObject/ConfigurationItem/GenericCommunicationsElement/GenericBroadcastElement/GenericProgramInputEquipment/IPAudioCodec,dce07a03-ee7d-454f-ab7f-3dab9e153cef,,,,NOT_ASSIGNED,,NOT_ASSIGNED,,,,,,,,,,,,,,,,,,,,,,,,,,,,,,,,,,,,,,,,,,,,,,,,,,
Rowridge_Rack1-SouthamptonRadio_DB9000-RX,c8bf18d4-9b79-4340-8c98-766b46f7ff7b,rowridge1,,,10.7.105.99,P,,,,,NOT_ASSIGNED,,50.676388,-1.368611,,,,ILR_Contactor_2,InventoryObject/ViewableObject/ConfigurationItem/GenericCommunicationsElement/GenericBroadcastElement/GenericProgramInputEquipment/IPAudioCodec,c8bf18d4-9b79-4340-8c98-766b46f7ff7b,,,85199373-939c-4da5-b093-964f055e5e7a,Southampton_Radio,dba0d805-40a9-4bb1-86d5-63b3560d6e82,ILR_Contactor_2,,,,,,,,,,,,,,,,,,,,,,,,,,,,,,,,,,,,,,,,,,,,,,,,,,
Crabwood_Farm_Rack1-WinchesterRadio_DB9000-RX,94544411-27fe-4ace-82b1-8fc3f90d4eb8,crabwoodFarm1,,,10.5.105.99,P,,,,,NOT_ASSIGNED,,51.0632,-1.3603,,,,ILR_Contractor_1,InventoryObject/ViewableObject/ConfigurationItem/GenericCommunicationsElement/GenericBroadcastElement/GenericProgramInputEquipment/IPAudioCodec,94544411-27fe-4ace-82b1-8fc3f90d4eb8,,,b6df696f-b289-4087-932e-59aca0c23b08,Winchester_Radio,b7d8c0be-3a99-4bd9-8287-6e4d98d0530b,ILR_Contractor_1,,,,,,,,,,,,,,,,,,,,,,,,,,,,,,,,,,,,,,,,,,,,,,,,,,
Fort_Widley_Rack1-PortsmouthRadio_DB9000-RX,703c4254-aba0-49e5-ac42-af305f84ce01,ftwidley1,,,10.6.105.99,P,,,,,NOT_ASSIGNED,,50.854836,-1.067246,,,,ILR_Contractor_1,InventoryObject/ViewableObject/ConfigurationItem/GenericCommunicationsElement/GenericBroadcastElement/GenericProgramInputEquipment/IPAudioCodec,703c4254-aba0-49e5-ac42-af305f84ce01,,,a6b7943d-fbe7-417b-a8ab-d508ab82dc06,Portsmouth_Radio,b7d8c0be-3a99-4bd9-8287-6e4d98d0530b,ILR_Contractor_1,,,,,,,,,,,,,,,,,,,,,,,,,,,,,,,,,,,,,,,,,,,,,,,,,,
Camp_Hill_Rack1-SalisburyRadio_Intel_Nuc,fab7dc13-ad1d-4db3-94eb-b4c4d9764612,campHill1,,,10.8.105.240,P,,,,,NOT_ASSIGNED,,51.102833,-1.8419034,,,,,InventoryObject/ViewableObject/ConfigurationItem/GenericCommunicationsElement/GenericApplicationElement/SmallComputer,fab7dc13-ad1d-4db3-94eb-b4c4d9764612,,,,NOT_ASSIGNED,,NOT_ASSIGNED,,,,,,,,,,,,,,,,,,,,,,,,,,,,,,,,,,,,,,,,,,,,,,,,,,
Rowridge_Rack1-SouthamptonRadio_Intel_Nuc,aa8fe1c2-dcec-4cfd-8f16-8e58e25fb05d,rowridge1,,,10.7.105.240,P,,,,,NOT_ASSIGNED,,50.676388,-1.368611,,,,ILR_Contactor_2,InventoryObject/ViewableObject/ConfigurationItem/GenericCommunicationsElement/GenericApplicationElement/SmallComputer,aa8fe1c2-dcec-4cfd-8f16-8e58e25fb05d,,,85199373-939c-4da5-b093-964f055e5e7a,Southampton_Radio,dba0d805-40a9-4bb1-86d5-63b3560d6e82,ILR_Contactor_2,,,,,,,,,,,,,,,,,,,,,,,,,,,,,,,,,,,,,,,,,,,,,,,,,,
Crabwood_Farm_Rack1-WinchesterRadio_Intel_Nuc,36edc569-5100-4333-8fda-4ff331cb5be7,crabwoodFarm1,,,10.5.105.240,P,,,,,NOT_ASSIGNED,,51.0632,-1.3603,,,,ILR_Contractor_1,InventoryObject/ViewableObject/ConfigurationItem/GenericCommunicationsElement/GenericApplicationElement/SmallComputer,36edc569-5100-4333-8fda-4ff331cb5be7,,,b6df696f-b289-4087-932e-59aca0c23b08,Winchester_Radio,b7d8c0be-3a99-4bd9-8287-6e4d98d0530b,ILR_Contractor_1,,,,,,,,,,,,,,,,,,,,,,,,,,,,,,,,,,,,,,,,,,,,,,,,,,
Fort_Widley_Rack1-PortsmouthRadio_Intel_Nuc,f84a6cee-7af5-46b8-a9d8-14f464c3e9d4,ftwidley1,,,10.6.105.240,P,,,,,NOT_ASSIGNED,,50.854836,-1.067246,,,,ILR_Contractor_1,InventoryObject/ViewableObject/ConfigurationItem/GenericCommunicationsElement/GenericApplicationElement/SmallComputer,f84a6cee-7af5-46b8-a9d8-14f464c3e9d4,,,a6b7943d-fbe7-417b-a8ab-d508ab82dc06,Portsmouth_Radio,b7d8c0be-3a99-4bd9-8287-6e4d98d0530b,ILR_Contractor_1,,,,,,,,,,,,,,,,,,,,,,,,,,,,,,,,,,,,,,,,,,,,,,,,,,
Edatel_MDE-RCK-EDT-001_MDE-SWT-EDT-001,37508089-5623-4ec6-aa14-bf1cccf9ece5,Management_Network,,,192.168.100.2,P,,,,,NOT_ASSIGNED,,,,,,,,InventoryObject/ViewableObject/ConfigurationItem/GenericCommunicationsElement/GenericNetworkElement/Switch,37508089-5623-4ec6-aa14-bf1cccf9ece5,,,,NOT_ASSIGNED,,NOT_ASSIGNED,,,,,,,,,,,,,,,,,,,,,,,,,,,,,,,,,,,,,,,,,,,,,,,,,,
Edatel_MDE-RCK-EDT-001_MDE-SWT-EDT-002,e72e55f7-279b-45e9-9858-4167c316b84d,Management_Network,,,192.168.100.5,P,,,,,NOT_ASSIGNED,,,,,,,,InventoryObject/ViewableObject/ConfigurationItem/GenericCommunicationsElement/GenericNetworkElement/Switch,e72e55f7-279b-45e9-9858-4167c316b84d,,,,NOT_ASSIGNED,,NOT_ASSIGNED,,,,,,,,,,,,,,,,,,,,,,,,,,,,,,,,,,,,,,,,,,,,,,,,,,
Edatel_MDE-RCK-EDT-001_MDE-SWT-EDT-003,3d30a59b-f33b-404a-b287-8b5c8f197a82,Management_Network,,,192.168.100.9,P,,,,,NOT_ASSIGNED,,,,,,,,InventoryObject/ViewableObject/ConfigurationItem/GenericCommunicationsElement/GenericNetworkElement/Switch,3d30a59b-f33b-404a-b287-8b5c8f197a82,,,,NOT_ASSIGNED,,NOT_ASSIGNED,,,,,,,,,,,,,,,,,,,,,,,,,,,,,,,,,,,,,,,,,,,,,,,,,,
Edatel_MDE-RCK-EDT-001_MDE-SWT-EDT-004,6992c6ec-45ba-44fa-96be-1c5b87c1aa9e,Management_Network,,,192.168.100.7,P,,,,,NOT_ASSIGNED,,,,,,,,InventoryObject/ViewableObject/ConfigurationItem/GenericCommunicationsElement/GenericNetworkElement/Switch,6992c6ec-45ba-44fa-96be-1c5b87c1aa9e,,,,NOT_ASSIGNED,,NOT_ASSIGNED,,,,,,,,,,,,,,,,,,,,,,,,,,,,,,,,,,,,,,,,,,,,,,,,,,
Camp_Hill_Rack1-SalisburyRadio_Minion-01,6c255aca-1a29-498b-83be-9921dfeed83a,campHill1,,,10.8.105.242,P,,,,,NOT_ASSIGNED,,51.102833,-1.8419034,,,,,InventoryObject/ViewableObject/ConfigurationItem/GenericCommunicationsElement/GenericApplicationElement/SmallComputer,6c255aca-1a29-498b-83be-9921dfeed83a,,,,NOT_ASSIGNED,,NOT_ASSIGNED,,,,,,,,,,,,,,,,,,,,,,,,,,,,,,,,,,,,,,,,,,,,,,,,,,
Rowridge_Rack1-SouthamptonRadio_Minion-01,0c0d60d7-8f6c-4272-a446-fc8a39ae54b3,rowridge1,,,10.7.105.242,P,,,,,NOT_ASSIGNED,,50.676388,-1.368611,,,,ILR_Contactor_2,InventoryObject/ViewableObject/ConfigurationItem/GenericCommunicationsElement/GenericApplicationElement/SmallComputer,0c0d60d7-8f6c-4272-a446-fc8a39ae54b3,,,85199373-939c-4da5-b093-964f055e5e7a,Southampton_Radio,dba0d805-40a9-4bb1-86d5-63b3560d6e82,ILR_Contactor_2,,,,,,,,,,,,,,,,,,,,,,,,,,,,,,,,,,,,,,,,,,,,,,,,,,
Crabwood_Farm_Rack1-WinchesterRadio_Minion-01,e9d9b1f2-76ad-4822-b962-8e67b0760c03,crabwoodFarm1,,,10.5.105.242,P,,,,,NOT_ASSIGNED,,51.0632,-1.3603,,,,ILR_Contractor_1,InventoryObject/ViewableObject/ConfigurationItem/GenericCommunicationsElement/GenericApplicationElement/SmallComputer,e9d9b1f2-76ad-4822-b962-8e67b0760c03,,,b6df696f-b289-4087-932e-59aca0c23b08,Winchester_Radio,b7d8c0be-3a99-4bd9-8287-6e4d98d0530b,ILR_Contractor_1,,,,,,,,,,,,,,,,,,,,,,,,,,,,,,,,,,,,,,,,,,,,,,,,,,
Fort_Widley_Rack1-PortsmouthRadio_Minion-01,b05db3dd-a735-4425-8cba-bfac76e0cbb7,ftwidley1,,,10.6.105.242,P,,,,,NOT_ASSIGNED,,50.854836,-1.067246,,,,ILR_Contractor_1,InventoryObject/ViewableObject/ConfigurationItem/GenericCommunicationsElement/GenericApplicationElement/SmallComputer,b05db3dd-a735-4425-8cba-bfac76e0cbb7,,,a6b7943d-fbe7-417b-a8ab-d508ab82dc06,Portsmouth_Radio,b7d8c0be-3a99-4bd9-8287-6e4d98d0530b,ILR_Contractor_1,,,,,,,,,,,,,,,,,,,,,,,,,,,,,,,,,,,,,,,,,,,,,,,,,,
House_01__ONT_NOKIA_01,6960d25c-c284-4c57-88a6-6569bd00e22c,Default,,,254.0.0.1,N,,,,,NOT_ASSIGNED,,,,,,,,InventoryObject/ViewableObject/ConfigurationItem/GenericCommunicationsElement/GenericPhysicalElement/OpticalNetworkTerminal,6960d25c-c284-4c57-88a6-6569bd00e22c,,,,NOT_ASSIGNED,,NOT_ASSIGNED,,,,,,,,,,,,,,,,,,,,,,,,,,,,,,,,,,,,,,,,,,,,,,,,,,
House_with_Single_ONT__Sample_ONT,ec5f0fbe-53c1-4695-9d9c-6ffd3be125b6,Default,,,254.0.0.1,N,,,,,NOT_ASSIGNED,,,,,,,,InventoryObject/ViewableObject/ConfigurationItem/GenericCommunicationsElement/GenericPhysicalElement/OpticalNetworkTerminal,ec5f0fbe-53c1-4695-9d9c-6ffd3be125b6,,,,NOT_ASSIGNED,,NOT_ASSIGNED,,,,,,,,,,,,,,,,,,,,,,,,,,,,,,,,,,,,,,,,,,,,,,,,,,
Camp_Hill_Rack1-SalisburyRadio_TX1000-V3,f62f7c82-c9c8-4f53-894e-4f4306d7c4a0,campHill1,,,10.8.105.98,P,,,,,NOT_ASSIGNED,,51.102833,-1.8419034,,,,,InventoryObject/ViewableObject/ConfigurationItem/GenericCommunicationsElement/GenericBroadcastElement/GenericBroadcastTransmitter/FMTransmitter,f62f7c82-c9c8-4f53-894e-4f4306d7c4a0,,,,NOT_ASSIGNED,,NOT_ASSIGNED,,,,,,,,,,,,,,,,,,,,,,,,,,,,,,,,,,,,,,,,,,,,,,,,,,
Rowridge_Rack1-SouthamptonRadio_TX1000-V3,b070da1a-2ada-437b-ae7c-6a4656625c3b,rowridge1,,,10.7.105.98,P,,,,,NOT_ASSIGNED,,50.676388,-1.368611,,,,ILR_Contactor_2,InventoryObject/ViewableObject/ConfigurationItem/GenericCommunicationsElement/GenericBroadcastElement/GenericBroadcastTransmitter/FMTransmitter,b070da1a-2ada-437b-ae7c-6a4656625c3b,,,85199373-939c-4da5-b093-964f055e5e7a,Southampton_Radio,dba0d805-40a9-4bb1-86d5-63b3560d6e82,ILR_Contactor_2,,,,,,,,,,,,,,,,,,,,,,,,,,,,,,,,,,,,,,,,,,,,,,,,,,
Crabwood_Farm_Rack1-WinchesterRadio_TX1000-V3,6f243c6e-60ee-4e88-b640-98897595f263,crabwoodFarm1,,,10.5.105.98,P,,,,,NOT_ASSIGNED,,51.0632,-1.3603,,,,ILR_Contractor_1,InventoryObject/ViewableObject/ConfigurationItem/GenericCommunicationsElement/GenericBroadcastElement/GenericBroadcastTransmitter/FMTransmitter,6f243c6e-60ee-4e88-b640-98897595f263,,,b6df696f-b289-4087-932e-59aca0c23b08,Winchester_Radio,b7d8c0be-3a99-4bd9-8287-6e4d98d0530b,ILR_Contractor_1,,,,,,,,,,,,,,,,,,,,,,,,,,,,,,,,,,,,,,,,,,,,,,,,,,
Fort_Widley_Rack1-PortsmouthRadio_TX1000-V3,b68fa53a-eff3-4191-b7ae-123998dd5233,ftwidley1,,,10.6.105.98,P,,,,,NOT_ASSIGNED,,50.854836,-1.067246,,,,ILR_Contractor_1,InventoryObject/ViewableObject/ConfigurationItem/GenericCommunicationsElement/GenericBroadcastElement/GenericBroadcastTransmitter/FMTransmitter,b68fa53a-eff3-4191-b7ae-123998dd5233,,,a6b7943d-fbe7-417b-a8ab-d508ab82dc06,Portsmouth_Radio,b7d8c0be-3a99-4bd9-8287-6e4d98d0530b,ILR_Contractor_1,,,,,,,,,,,,,,,,,,,,,,,,,,,,,,,,,,,,,,,,,,,,,,,,,,
Camp_Hill_Rack1-SalisburyRadio_Vigor2860_SEC,7dfec1b3-20e8-4581-b118-048342b8133e,campHill1,,,10.8.105.2,P,,,vigor2927-1,,NOT_ASSIGNED,,51.102833,-1.8419034,,,,,InventoryObject/ViewableObject/ConfigurationItem/GenericCommunicationsElement/GenericNetworkElement/CPERouter,7dfec1b3-20e8-4581-b118-048342b8133e,,,,NOT_ASSIGNED,,NOT_ASSIGNED,,,,,,,,,,,,,,,,,,,,,,,,,,,,,,,,,,,,,,,,,,,,,,,,,,
Rowridge_Rack1-SouthamptonRadio_Vigor2860_SEC,ec47a21f-6cff-4389-b1b4-53256be0887b,rowridge1,,,10.7.105.2,P,,,vigor2927-1,,NOT_ASSIGNED,,50.676388,-1.368611,,,,ILR_Contactor_2,InventoryObject/ViewableObject/ConfigurationItem/GenericCommunicationsElement/GenericNetworkElement/CPERouter,ec47a21f-6cff-4389-b1b4-53256be0887b,,,85199373-939c-4da5-b093-964f055e5e7a,Southampton_Radio,dba0d805-40a9-4bb1-86d5-63b3560d6e82,ILR_Contactor_2,,,,,,,,,,,,,,,,,,,,,,,,,,,,,,,,,,,,,,,,,,,,,,,,,,
Crabwood_Farm_Rack1-WinchesterRadio_Vigor2860_SEC,a49c86df-ff26-4730-97a5-2634e9d84016,crabwoodFarm1,,,10.5.105.2,P,,,vigor2927-1,,NOT_ASSIGNED,,51.0632,-1.3603,,,,ILR_Contractor_1,InventoryObject/ViewableObject/ConfigurationItem/GenericCommunicationsElement/GenericNetworkElement/CPERouter,a49c86df-ff26-4730-97a5-2634e9d84016,,,b6df696f-b289-4087-932e-59aca0c23b08,Winchester_Radio,b7d8c0be-3a99-4bd9-8287-6e4d98d0530b,ILR_Contractor_1,,,,,,,,,,,,,,,,,,,,,,,,,,,,,,,,,,,,,,,,,,,,,,,,,,
Fort_Widley_Rack1-PortsmouthRadio_Vigor2860_SEC,84f42810-87b9-40c4-894f-cb983a5ae687,ftwidley1,,,10.6.105.2,P,,,vigor2927-1,,NOT_ASSIGNED,,50.854836,-1.067246,,,,ILR_Contractor_1,InventoryObject/ViewableObject/ConfigurationItem/GenericCommunicationsElement/GenericNetworkElement/CPERouter,84f42810-87b9-40c4-894f-cb983a5ae687,,,a6b7943d-fbe7-417b-a8ab-d508ab82dc06,Portsmouth_Radio,b7d8c0be-3a99-4bd9-8287-6e4d98d0530b,ILR_Contractor_1,,,,,,,,,,,,,,,,,,,,,,,,,,,,,,,,,,,,,,,,,,,,,,,,,,
Camp_Hill_Rack1-SalisburyRadio_Vigor2860_VIRT,46a32ca7-20c7-4a47-849b-7db4bd99080f,campHill1,,,10.8.105.254,P,,,vigor2927-1,,NOT_ASSIGNED,,51.102833,-1.8419034,,,,,InventoryObject/ViewableObject/ConfigurationItem/GenericCommunicationsElement/GenericNetworkElement/CPERouter,46a32ca7-20c7-4a47-849b-7db4bd99080f,,,,NOT_ASSIGNED,,NOT_ASSIGNED,,,,,,,,,,,,,,,,,,,,,,,,,,,,,,,,,,,,,,,,,,,,,,,,,,
Rowridge_Rack1-SouthamptonRadio_Vigor2860_VIRT,b9608a99-f07b-4d8d-a2b0-2c2343a4079f,rowridge1,,,10.7.105.254,P,,,vigor2927-1,,NOT_ASSIGNED,,50.676388,-1.368611,,,,ILR_Contactor_2,InventoryObject/ViewableObject/ConfigurationItem/GenericCommunicationsElement/GenericNetworkElement/CPERouter,b9608a99-f07b-4d8d-a2b0-2c2343a4079f,,,85199373-939c-4da5-b093-964f055e5e7a,Southampton_Radio,dba0d805-40a9-4bb1-86d5-63b3560d6e82,ILR_Contactor_2,,,,,,,,,,,,,,,,,,,,,,,,,,,,,,,,,,,,,,,,,,,,,,,,,,
Crabwood_Farm_Rack1-WinchesterRadio_Vigor2860_VIRT,fdc9c155-d132-4fad-9afc-bab22d3a4242,crabwoodFarm1,,,10.5.105.254,P,,,vigor2927-1,,NOT_ASSIGNED,,51.0632,-1.3603,,,,ILR_Contractor_1,InventoryObject/ViewableObject/ConfigurationItem/GenericCommunicationsElement/GenericNetworkElement/CPERouter,fdc9c155-d132-4fad-9afc-bab22d3a4242,,,b6df696f-b289-4087-932e-59aca0c23b08,Winchester_Radio,b7d8c0be-3a99-4bd9-8287-6e4d98d0530b,ILR_Contractor_1,,,,,,,,,,,,,,,,,,,,,,,,,,,,,,,,,,,,,,,,,,,,,,,,,,
Fort_Widley_Rack1-PortsmouthRadio_Vigor2860_VIRT,30df2b02-f69d-47a7-960a-785385da424a,ftwidley1,,,10.6.105.254,P,,,vigor2927-1,,NOT_ASSIGNED,,50.854836,-1.067246,,,,ILR_Contractor_1,InventoryObject/ViewableObject/ConfigurationItem/GenericCommunicationsElement/GenericNetworkElement/CPERouter,30df2b02-f69d-47a7-960a-785385da424a,,,a6b7943d-fbe7-417b-a8ab-d508ab82dc06,Portsmouth_Radio,b7d8c0be-3a99-4bd9-8287-6e4d98d0530b,ILR_Contractor_1,,,,,,,,,,,,,,,,,,,,,,,,,,,,,,,,,,,,,,,,,,,,,,,,,,
Camp_Hill_Rack1-SalisburyRadio_Vigor2927_PRI,61bb7823-da25-4bd6-b696-783b113a9cdd,campHill1,,,10.8.105.10,P,,,vigor2927-1,,NOT_ASSIGNED,,51.102833,-1.8419034,,,,,InventoryObject/ViewableObject/ConfigurationItem/GenericCommunicationsElement/GenericNetworkElement/CPERouter,61bb7823-da25-4bd6-b696-783b113a9cdd,,,,NOT_ASSIGNED,,NOT_ASSIGNED,,,,,,,,,,,,,,,,,,,,,,,,,,,,,,,,,,,,,,,,,,,,,,,,,,
Rowridge_Rack1-SouthamptonRadio_Vigor2927_PRI,27942848-33e3-42bf-8f7a-7f231c0a1a0b,rowridge1,,,10.7.105.10,P,,,vigor2927-1,,NOT_ASSIGNED,,50.676388,-1.368611,,,,ILR_Contactor_2,InventoryObject/ViewableObject/ConfigurationItem/GenericCommunicationsElement/GenericNetworkElement/CPERouter,27942848-33e3-42bf-8f7a-7f231c0a1a0b,,,85199373-939c-4da5-b093-964f055e5e7a,Southampton_Radio,dba0d805-40a9-4bb1-86d5-63b3560d6e82,ILR_Contactor_2,,,,,,,,,,,,,,,,,,,,,,,,,,,,,,,,,,,,,,,,,,,,,,,,,,
Crabwood_Farm_Rack1-WinchesterRadio_Vigor2927_PRI,5cf6dbf9-7d90-4578-a675-9227f17ffc89,crabwoodFarm1,,,10.5.105.10,P,,,vigor2927-1,,NOT_ASSIGNED,,51.0632,-1.3603,,,,ILR_Contractor_1,InventoryObject/ViewableObject/ConfigurationItem/GenericCommunicationsElement/GenericNetworkElement/CPERouter,5cf6dbf9-7d90-4578-a675-9227f17ffc89,,,b6df696f-b289-4087-932e-59aca0c23b08,Winchester_Radio,b7d8c0be-3a99-4bd9-8287-6e4d98d0530b,ILR_Contractor_1,,,,,,,,,,,,,,,,,,,,,,,,,,,,,,,,,,,,,,,,,,,,,,,,,,
Fort_Widley_Rack1-PortsmouthRadio_Vigor2927_PRI,681652dc-881c-478c-8f1a-12919dccc560,ftwidley1,,,10.6.105.10,P,,,vigor2927-1,,NOT_ASSIGNED,,50.854836,-1.067246,,,,ILR_Contractor_1,InventoryObject/ViewableObject/ConfigurationItem/GenericCommunicationsElement/GenericNetworkElement/CPERouter,681652dc-881c-478c-8f1a-12919dccc560,,,a6b7943d-fbe7-417b-a8ab-d508ab82dc06,Portsmouth_Radio,b7d8c0be-3a99-4bd9-8287-6e4d98d0530b,ILR_Contractor_1,,,,,,,,,,,,,,,,,,,,,,,,,,,,,,,,,,,,,,,,,,,,,,,,,,
Camp_Hill_Rack1-SalisburyRadio_Win7_Rack_PC,2cdebd22-e3f7-427f-8ecf-c8c7c9cf0f0d,campHill1,,,10.8.105.200,P,,,,,NOT_ASSIGNED,,51.102833,-1.8419034,,,,,InventoryObject/ViewableObject/ConfigurationItem/GenericCommunicationsElement/GenericApplicationElement/Server,2cdebd22-e3f7-427f-8ecf-c8c7c9cf0f0d,,,,NOT_ASSIGNED,,NOT_ASSIGNED,,,,,,,,,,,,,,,,,,,,,,,,,,,,,,,,,,,,,,,,,,,,,,,,,,
Rowridge_Rack1-SouthamptonRadio_Win7_Rack_PC,2454faca-e385-4cce-81b3-6b9219553e74,rowridge1,,,10.7.105.200,P,,,,,NOT_ASSIGNED,,50.676388,-1.368611,,,,ILR_Contactor_2,InventoryObject/ViewableObject/ConfigurationItem/GenericCommunicationsElement/GenericApplicationElement/Server,2454faca-e385-4cce-81b3-6b9219553e74,,,85199373-939c-4da5-b093-964f055e5e7a,Southampton_Radio,dba0d805-40a9-4bb1-86d5-63b3560d6e82,ILR_Contactor_2,,,,,,,,,,,,,,,,,,,,,,,,,,,,,,,,,,,,,,,,,,,,,,,,,,
Crabwood_Farm_Rack1-WinchesterRadio_Win7_Rack_PC,a6efd871-c7e4-4b99-acc5-147357a893d4,crabwoodFarm1,,,10.5.105.200,P,,,,,NOT_ASSIGNED,,51.0632,-1.3603,,,,ILR_Contractor_1,InventoryObject/ViewableObject/ConfigurationItem/GenericCommunicationsElement/GenericApplicationElement/Server,a6efd871-c7e4-4b99-acc5-147357a893d4,,,b6df696f-b289-4087-932e-59aca0c23b08,Winchester_Radio,b7d8c0be-3a99-4bd9-8287-6e4d98d0530b,ILR_Contractor_1,,,,,,,,,,,,,,,,,,,,,,,,,,,,,,,,,,,,,,,,,,,,,,,,,,
Fort_Widley_Rack1-PortsmouthRadio_Win7_Rack_PC,d0acda17-0b3c-4792-bae7-39a2c7da3731,ftwidley1,,,10.6.105.200,P,,,,,NOT_ASSIGNED,,50.854836,-1.067246,,,,ILR_Contractor_1,InventoryObject/ViewableObject/ConfigurationItem/GenericCommunicationsElement/GenericApplicationElement/Server,d0acda17-0b3c-4792-bae7-39a2c7da3731,,,a6b7943d-fbe7-417b-a8ab-d508ab82dc06,Portsmouth_Radio,b7d8c0be-3a99-4bd9-8287-6e4d98d0530b,ILR_Contractor_1,,,,,,,,,,,,,,,,,,,,,,,,,,,,,,,,,,,,,,,,,,,,,,,,,,
Camp_Hill_Rack1-SalisburyRadio_cardinal_iMDU,51fdb617-0881-4ae4-ab27-1d128590b51f,campHill1,,,10.8.105.250,P,,,,,NOT_ASSIGNED,,51.102833,-1.8419034,,,,,InventoryObject/ViewableObject/ConfigurationItem/GenericCommunicationsElement/GenericPhysicalElement/GenericPowerElement/MDU,51fdb617-0881-4ae4-ab27-1d128590b51f,,,,NOT_ASSIGNED,,NOT_ASSIGNED,,,,,,,,,,,,,,,,,,,,,,,,,,,,,,,,,,,,,,,,,,,,,,,,,,
Rowridge_Rack1-SouthamptonRadio_cardinal_iMDU,de1f41de-35f2-45c5-8966-71afae74c5a9,rowridge1,,,10.7.105.250,P,,,,,NOT_ASSIGNED,,50.676388,-1.368611,,,,ILR_Contactor_2,InventoryObject/ViewableObject/ConfigurationItem/GenericCommunicationsElement/GenericPhysicalElement/GenericPowerElement/MDU,de1f41de-35f2-45c5-8966-71afae74c5a9,,,85199373-939c-4da5-b093-964f055e5e7a,Southampton_Radio,dba0d805-40a9-4bb1-86d5-63b3560d6e82,ILR_Contactor_2,,,,,,,,,,,,,,,,,,,,,,,,,,,,,,,,,,,,,,,,,,,,,,,,,,
Crabwood_Farm_Rack1-WinchesterRadio_cardinal_iMDU,ba5af0ac-fc1c-41a6-96ed-45f58238dce5,crabwoodFarm1,,,10.5.105.250,P,,,,,NOT_ASSIGNED,,51.0632,-1.3603,,,,ILR_Contractor_1,InventoryObject/ViewableObject/ConfigurationItem/GenericCommunicationsElement/GenericPhysicalElement/GenericPowerElement/MDU,ba5af0ac-fc1c-41a6-96ed-45f58238dce5,,,b6df696f-b289-4087-932e-59aca0c23b08,Winchester_Radio,b7d8c0be-3a99-4bd9-8287-6e4d98d0530b,ILR_Contractor_1,,,,,,,,,,,,,,,,,,,,,,,,,,,,,,,,,,,,,,,,,,,,,,,,,,
Fort_Widley_Rack1-PortsmouthRadio_cardinal_iMDU,a67ac9ad-eb84-4e85-8734-a70e52924126,ftwidley1,,,10.6.105.250,P,,,,,NOT_ASSIGNED,,50.854836,-1.067246,,,,ILR_Contractor_1,InventoryObject/ViewableObject/ConfigurationItem/GenericCommunicationsElement/GenericPhysicalElement/GenericPowerElement/MDU,a67ac9ad-eb84-4e85-8734-a70e52924126,,,a6b7943d-fbe7-417b-a8ab-d508ab82dc06,Portsmouth_Radio,b7d8c0be-3a99-4bd9-8287-6e4d98d0530b,ILR_Contractor_1,,,,,,,,,,,,,,,,,,,,,,,,,,,,,,,,,,,,,,,,,,,,,,,,,,
__ont-601,8ca41f55-b83a-4d77-adac-3f7c8e6d6b6b,Default,,,254.0.0.1,N,,,,,NOT_ASSIGNED,,,,,,,,InventoryObject/ViewableObject/ConfigurationItem/GenericCommunicationsElement/GenericPhysicalElement/OpticalNetworkTerminal,8ca41f55-b83a-4d77-adac-3f7c8e6d6b6b,,,,NOT_ASSIGNED,,NOT_ASSIGNED,,,,,,,,,,,,,,,,,,,,,,,,,,,,,,,,,,,,,,,,,,,,,,,,,,
__ont-602,119a090a-93b9-4c7a-8cba-c77320172f1a,Default,,,254.0.0.1,N,,,,,NOT_ASSIGNED,,,,,,,,InventoryObject/ViewableObject/ConfigurationItem/GenericCommunicationsElement/GenericPhysicalElement/OpticalNetworkTerminal,119a090a-93b9-4c7a-8cba-c77320172f1a,,,,NOT_ASSIGNED,,NOT_ASSIGNED,,,,,,,,,,,,,,,,,,,,,,,,,,,,,,,,,,,,,,,,,,,,,,,,,,
__ont-603,f949547d-e8af-4909-b886-bec3f2d1ed2c,Default,,,254.0.0.1,N,,,,,NOT_ASSIGNED,,,,,,,,InventoryObject/ViewableObject/ConfigurationItem/GenericCommunicationsElement/GenericPhysicalElement/OpticalNetworkTerminal,f949547d-e8af-4909-b886-bec3f2d1ed2c,,,,NOT_ASSIGNED,,NOT_ASSIGNED,,,,,,,,,,,,,,,,,,,,,,,,,,,,,,,,,,,,,,,,,,,,,,,,,,
__ont-604,36aa1faa-05b3-474c-a79d-b94a32c4477c,Default,,,254.0.0.1,N,,,,,NOT_ASSIGNED,,,,,,,,InventoryObject/ViewableObject/ConfigurationItem/GenericCommunicationsElement/GenericPhysicalElement/OpticalNetworkTerminal,36aa1faa-05b3-474c-a79d-b94a32c4477c,,,,NOT_ASSIGNED,,NOT_ASSIGNED,,,,,,,,,,,,,,,,,,,,,,,,,,,,,,,,,,,,,,,,,,,,,,,,,,
__ont-605,cec6e1e5-e772-4286-adcc-f5f9f7033e06,Default,,,254.0.0.1,N,,,,,NOT_ASSIGNED,,,,,,,,InventoryObject/ViewableObject/ConfigurationItem/GenericCommunicationsElement/GenericPhysicalElement/OpticalNetworkTerminal,cec6e1e5-e772-4286-adcc-f5f9f7033e06,,,,NOT_ASSIGNED,,NOT_ASSIGNED,,,,,,,,,,,,,,,,,,,,,,,,,,,,,,,,,,,,,,,,,,,,,,,,,,
__ont-606,0e9003b7-da31-4773-9ae7-e6662ececdb7,Default,,,254.0.0.1,N,,,,,NOT_ASSIGNED,,,,,,,,InventoryObject/ViewableObject/ConfigurationItem/GenericCommunicationsElement/GenericPhysicalElement/OpticalNetworkTerminal,0e9003b7-da31-4773-9ae7-e6662ececdb7,,,,NOT_ASSIGNED,,NOT_ASSIGNED,,,,,,,,,,,,,,,,,,,,,,,,,,,,,,,,,,,,,,,,,,,,,,,,,,
__ont-607,05e7317a-1086-4f40-8112-6d5d342fa26c,Default,,,254.0.0.1,N,,,,,NOT_ASSIGNED,,,,,,,,InventoryObject/ViewableObject/ConfigurationItem/GenericCommunicationsElement/GenericPhysicalElement/OpticalNetworkTerminal,05e7317a-1086-4f40-8112-6d5d342fa26c,,,,NOT_ASSIGNED,,NOT_ASSIGNED,,,,,,,,,,,,,,,,,,,,,,,,,,,,,,,,,,,,,,,,,,,,,,,,,,
__ont-b044,28655b99-d46e-4724-8502-b690baacdf74,Default,,,254.0.0.1,N,,,,,NOT_ASSIGNED,,,,,,,,InventoryObject/ViewableObject/ConfigurationItem/GenericCommunicationsElement/GenericPhysicalElement/OpticalNetworkTerminal,28655b99-d46e-4724-8502-b690baacdf74,,,,NOT_ASSIGNED,,NOT_ASSIGNED,,,,,,,,,,,,,,,,,,,,,,,,,,,,,,,,,,,,,,,,,,,,,,,,,,
__ont-b045,5aa9c54a-3474-4569-81a5-f2b717259fe2,Default,,,254.0.0.1,N,,,,,NOT_ASSIGNED,,,,,,,,InventoryObject/ViewableObject/ConfigurationItem/GenericCommunicationsElement/GenericPhysicalElement/OpticalNetworkTerminal,5aa9c54a-3474-4569-81a5-f2b717259fe2,,,,NOT_ASSIGNED,,NOT_ASSIGNED,,,,,,,,,,,,,,,,,,,,,,,,,,,,,,,,,,,,,,,,,,,,,,,,,,
__ont-b046,4da43772-c636-4bfa-afac-4e599bfd56ba,Default,,,254.0.0.1,N,,,,,NOT_ASSIGNED,,,,,,,,InventoryObject/ViewableObject/ConfigurationItem/GenericCommunicationsElement/GenericPhysicalElement/OpticalNetworkTerminal,4da43772-c636-4bfa-afac-4e599bfd56ba,,,,NOT_ASSIGNED,,NOT_ASSIGNED,,,,,,,,,,,,,,,,,,,,,,,,,,,,,,,,,,,,,,,,,,,,,,,,,,
__ont-b047,61f0397c-3794-45fd-9b88-7d8be994e9ae,Default,,,254.0.0.1,N,,,,,NOT_ASSIGNED,,,,,,,,InventoryObject/ViewableObject/ConfigurationItem/GenericCommunicationsElement/GenericPhysicalElement/OpticalNetworkTerminal,61f0397c-3794-45fd-9b88-7d8be994e9ae,,,,NOT_ASSIGNED,,NOT_ASSIGNED,,,,,,,,,,,,,,,,,,,,,,,,,,,,,,,,,,,,,,,,,,,,,,,,,,
__ont-b048,34fdb9c3-0c82-48d7-8c2b-eeb0cd184b40,Default,,,254.0.0.1,N,,,,,NOT_ASSIGNED,,,,,,,,InventoryObject/ViewableObject/ConfigurationItem/GenericCommunicationsElement/GenericPhysicalElement/OpticalNetworkTerminal,34fdb9c3-0c82-48d7-8c2b-eeb0cd184b40,,,,NOT_ASSIGNED,,NOT_ASSIGNED,,,,,,,,,,,,,,,,,,,,,,,,,,,,,,,,,,,,,,,,,,,,,,,,,,
__ont-b049,2bdac5c1-3f61-41ad-b165-780560c93174,Default,,,254.0.0.1,N,,,,,NOT_ASSIGNED,,,,,,,,InventoryObject/ViewableObject/ConfigurationItem/GenericCommunicationsElement/GenericPhysicalElement/OpticalNetworkTerminal,2bdac5c1-3f61-41ad-b165-780560c93174,,,,NOT_ASSIGNED,,NOT_ASSIGNED,,,,,,,,,,,,,,,,,,,,,,,,,,,,,,,,,,,,,,,,,,,,,,,,,,
__ont-b050,da441bde-b6d9-4d28-acf8-0531eb43fdf5,Default,,,254.0.0.1,N,,,,,NOT_ASSIGNED,,,,,,,,InventoryObject/ViewableObject/ConfigurationItem/GenericCommunicationsElement/GenericPhysicalElement/OpticalNetworkTerminal,da441bde-b6d9-4d28-acf8-0531eb43fdf5,,,,NOT_ASSIGNED,,NOT_ASSIGNED,,,,,,,,,,,,,,,,,,,,,,,,,,,,,,,,,,,,,,,,,,,,,,,,,,
__ont-b051,268f7885-b52e-4157-b9ca-340cedf14663,Default,,,254.0.0.1,N,,,,,NOT_ASSIGNED,,,,,,,,InventoryObject/ViewableObject/ConfigurationItem/GenericCommunicationsElement/GenericPhysicalElement/OpticalNetworkTerminal,268f7885-b52e-4157-b9ca-340cedf14663,,,,NOT_ASSIGNED,,NOT_ASSIGNED,,,,,,,,,,,,,,,,,,,,,,,,,,,,,,,,,,,,,,,,,,,,,,,,,,
Boo675__ont_601,7de313ca-5c15-42ad-a1bf-448d8cb18606,Default,,,254.0.0.1,N,,,,,NOT_ASSIGNED,,2.440138,-76.61559,,,,,InventoryObject/ViewableObject/ConfigurationItem/GenericCommunicationsElement/GenericPhysicalElement/OpticalNetworkTerminal,7de313ca-5c15-42ad-a1bf-448d8cb18606,,,,NOT_ASSIGNED,,NOT_ASSIGNED,,,,,,,,,,,,,,,,,,,,,,,,,,,,,,,,,,,,,,,,,,,,,,,,,,
Boo675__ont_602,e6b439ee-a56f-4934-aae1-9427531fc272,Default,,,254.0.0.1,N,,,,,NOT_ASSIGNED,,2.440138,-76.61559,,,,,InventoryObject/ViewableObject/ConfigurationItem/GenericCommunicationsElement/GenericPhysicalElement/OpticalNetworkTerminal,e6b439ee-a56f-4934-aae1-9427531fc272,,,,NOT_ASSIGNED,,NOT_ASSIGNED,,,,,,,,,,,,,,,,,,,,,,,,,,,,,,,,,,,,,,,,,,,,,,,,,,
Boo675__ont_603,17e5427f-735b-4e4d-ac66-3a573cb049be,Default,,,254.0.0.1,N,,,,,NOT_ASSIGNED,,2.440138,-76.61559,,,,,InventoryObject/ViewableObject/ConfigurationItem/GenericCommunicationsElement/GenericPhysicalElement/OpticalNetworkTerminal,17e5427f-735b-4e4d-ac66-3a573cb049be,,,,NOT_ASSIGNED,,NOT_ASSIGNED,,,,,,,,,,,,,,,,,,,,,,,,,,,,,,,,,,,,,,,,,,,,,,,,,,
Boo675__ont_604,420d76e9-de48-4456-b7c6-ea926c06d8aa,Default,,,254.0.0.1,N,,,,,NOT_ASSIGNED,,2.440138,-76.61559,,,,,InventoryObject/ViewableObject/ConfigurationItem/GenericCommunicationsElement/GenericPhysicalElement/OpticalNetworkTerminal,420d76e9-de48-4456-b7c6-ea926c06d8aa,,,,NOT_ASSIGNED,,NOT_ASSIGNED,,,,,,,,,,,,,,,,,,,,,,,,,,,,,,,,,,,,,,,,,,,,,,,,,,
Boo675__ont_605,e5867c34-bea6-421f-beca-b0086a34eb08,Default,,,254.0.0.1,N,,,,,NOT_ASSIGNED,,2.440138,-76.61559,,,,,InventoryObject/ViewableObject/ConfigurationItem/GenericCommunicationsElement/GenericPhysicalElement/OpticalNetworkTerminal,e5867c34-bea6-421f-beca-b0086a34eb08,,,,NOT_ASSIGNED,,NOT_ASSIGNED,,,,,,,,,,,,,,,,,,,,,,,,,,,,,,,,,,,,,,,,,,,,,,,,,,
Boo675__ont_606,3d9fb81e-8df7-4888-a3c5-98c7064c12cc,Default,,,254.0.0.1,N,,,,,NOT_ASSIGNED,,2.440138,-76.61559,,,,,InventoryObject/ViewableObject/ConfigurationItem/GenericCommunicationsElement/GenericPhysicalElement/OpticalNetworkTerminal,3d9fb81e-8df7-4888-a3c5-98c7064c12cc,,,,NOT_ASSIGNED,,NOT_ASSIGNED,,,,,,,,,,,,,,,,,,,,,,,,,,,,,,,,,,,,,,,,,,,,,,,,,,
